1 44741U 19074AE  23135.73999508  .00000819  00000-0  73850-4 0  9990
2 44741  53.0538 145.7493 0001409  92.6200 267.4950 15.06396784193388
1 44741U 19074AE  23136.40346532  .00001861  00000-0  14383-3 0  9991
2 44741  53.0539 142.7697 0001372  91.6888 268.4258 15.06395450193484
1 44741U 19074AE  23136.73519757  .00001774  00000-0  13799-3 0  9991
2 44741  53.0540 141.2810 0001365  92.0689 268.0457 15.06398792193538
1 44741U 19074AE  23136.73519757  .00001774  00000-0  13799-3 0  9991
2 44741  53.0540 141.2810 0001365  92.0689 268.0457 15.06398792193707
1 44741U 19074AE  23137.73040059  .00000311  00000-0  39754-4 0  9992
2 44741  53.0535 136.8124 0001341  92.1820 267.9322 15.06397227193689
1 44741U 19074AE  23138.39387090 -.00000026  00000-0  17165-4 0  9990
2 44741  53.0537 133.8344 0001372  89.5978 270.5168 15.06395070193783
1 44741U 19074AE  23138.39387090 -.00000026  00000-0  17165-4 0  9990
2 44741  53.0537 133.8344 0001372  89.5978 270.5168 15.06395070193952
1 44741U 19074AE  23139.25637359  .00000237  00000-0  34805-4 0  9995
2 44741  53.0537 129.9632 0001369  86.3439 273.7707 15.06402903193915
1 44741U 19074AE  23139.25637359  .00000237  00000-0  34805-4 0  9995
2 44741  53.0537 129.9632 0001369  86.3439 273.7707 15.06402903194084
1 44741U 19074AE  23140.18523380  .00001062  00000-0  90166-4 0  9996
2 44741  53.0541 125.7937 0001350  85.0020 275.1123 15.06396029194228
1 44741U 19074AE  23140.64965430  .00001753  00000-0  13651-3 0  9993
2 44741  53.0545 123.7092 0001362  85.4314 274.6831 15.06405493194120
1 44741U 19074AE  23140.64965430  .00001753  00000-0  13651-3 0  9993
2 44741  53.0545 123.7092 0001362  85.4314 274.6831 15.06405493194298
1 44741U 19074AE  23141.11407258  .00002697  00000-0  19979-3 0  9992
2 44741  53.0539 121.6238 0001307  85.2421 274.8717 15.06415502194361
1 44741U 19074AE  23141.31311177  .00004387  00000-0  31304-3 0  9992
2 44741  53.0531 120.7299 0001365  84.8619 275.2525 15.06420297194222
1 44741U 19074AE  23141.64485778 -.00000451  00000-0 -11368-4 0  9996
2 44741  53.0528 119.2403 0001832  86.6746 273.4452 15.06398185194272
1 44741U 19074AE  23141.64485778 -.00000451  00000-0 -11368-4 0  9996
2 44741  53.0528 119.2403 0001832  86.6746 273.4452 15.06398185194441
1 44741U 19074AE  23142.30833052 -.00003938  00000-0 -24572-3 0  9995
2 44741  53.0537 116.2616 0001895  90.4230 269.6977 15.06386825194373
1 44741U 19074AE  23142.30833052 -.00003938  00000-0 -24572-3 0  9995
2 44741  53.0537 116.2616 0001895  90.4230 269.6977 15.06386825194542
1 44741U 19074AE  23142.64006331 -.00000351  00000-0 -46426-5 0  9994
2 44741  53.0540 114.7737 0001412  99.9312 260.1837 15.06396155194428
1 44741U 19074AE  23142.64006331 -.00000351  00000-0 -46426-5 0  9994
2 44741  53.0540 114.7737 0001412  99.9312 260.1837 15.06396155194596
1 44741U 19074AE  23143.63527103  .00001027  00000-0  87852-4 0  9995
2 44741  53.0528 110.3039 0001361 101.2905 258.8236 15.06390358194571
1 44741U 19074AE  23143.63527103  .00001027  00000-0  87852-4 0  9995
2 44741  53.0528 110.3039 0001361 101.2905 258.8236 15.06390358194740
1 44741U 19074AE  23144.29874433  .00002890  00000-0  21287-3 0  9997
2 44741  53.0534 107.3246 0001403 105.9187 254.1957 15.06392255194672
1 44741U 19074AE  23145.89106636  .00002393  00000-0  17948-3 0  9994
2 44741  53.0528 100.1795 0001299  94.0372 266.0765 15.06399596194913
1 44741U 19074AE  23146.15645533  .00000205  00000-0  32652-4 0  9998
2 44741  53.0539  98.9871 0001278  95.4932 264.6203 15.06395469195128
1 44741U 19074AE  23146.88626464  .00003095  00000-0  22651-3 0  9997
2 44741  53.0538  95.7120 0001214  92.4500 267.6628 15.06407752195063
1 44741U 19074AE  23147.15164825  .00004136  00000-0  29626-3 0  9992
2 44741  53.0539  94.5203 0001187  91.4518 268.6607 15.06413910195274
1 44741U 19074AE  23147.88147389 -.00001559  00000-0 -85855-4 0  9993
2 44741  53.0538  91.2439 0001174  91.1035 269.0089 15.06387469195385
1 44741U 19074AE  23148.21320768 -.00000439  00000-0 -10607-4 0  9994
2 44741  53.0541  89.7554 0001172  90.9211 269.1913 15.06392200195263
1 44741U 19074AE  23149.20840914  .00013678  00000-0  93502-3 0  9995
2 44741  53.0538  85.2875 0001157  85.5432 274.5689 15.06412484195586
1 44741U 19074AE  23149.34110083  .00014882  00000-0  10153-2 0  9995
2 44741  53.0545  84.6904 0001202  82.8431 277.2694 15.06419421195438
1 44741U 19074AE  23149.87188393 -.00000236  00000-0  30433-5 0  9997
2 44741  53.0540  82.3072 0001212  90.0975 270.0153 15.06390702195519
1 44741U 19074AE  23150.07092641  .00003631  00000-0  26257-3 0  9999
2 44741  53.0541  81.4182 0000890  81.0686 279.0404 15.06391528195540
1 44741U 19074AE  23150.07092641  .00003631  00000-0  26257-3 0  9999
2 44741  53.0541  81.4182 0000890  81.0686 279.0404 15.06391528195719
1 44741U 19074AE  23150.80074217  .00018690  00000-0  12699-2 0  9994
2 44741  53.0542  78.1383 0001182 102.5640 257.5481 15.06410704195657
1 44741U 19074AE  23151.06612582  .00020382  00000-0  13824-2 0  9998
2 44741  53.0536  76.9486 0000973  90.1663 269.9438 15.06423244195869
1 44741U 19074AE  23151.19881631  .00021298  00000-0  14432-2 0  9998
2 44741  53.0542  76.3514 0001126  99.9703 260.1413 15.06430290195714
1 44741U 19074AE  23151.92863703  .00008693  00000-0  60163-3 0  9996
2 44741  53.0543  73.0742 0000997  92.9822 267.1281 15.06406592195822
1 44741U 19074AE  23152.06133197  .00007718  00000-0  53640-3 0  9998
2 44741  53.0545  72.4801 0001168  86.3591 273.7531 15.06403007195845
1 44741U 19074AE  23152.06133197  .00007718  00000-0  53640-3 0  9998
2 44741  53.0545  72.4801 0001168  86.3591 273.7531 15.06403007196015
1 44741U 19074AE  23153.05652292  .00019074  00000-0  12947-2 0  9992
2 44741  53.0551  68.0132 0001192  88.1597 271.9528 15.06435726196168
1 44741U 19074AE  23153.18921247  .00017861  00000-0  12136-2 0  9997
2 44741  53.0549  67.4168 0001182  87.5303 272.5821 15.06440373196015
1 44741U 19074AE  23153.78634258 -.00005280  00000-0 -33590-3 0  9998
2 44741  53.0550  64.7371 0001510 112.2892 247.8257 15.06394550196100
1 44741U 19074AE  23153.78634258 -.00005280  00000-0 -33590-3 0  9998
2 44741  53.0550  64.7371 0001510 112.2892 247.8257 15.06394550196278
1 44741U 19074AE  23154.11808242  .00003641  00000-0  26326-3 0  9998
2 44741  53.0550  63.2480 0001182 109.2777 250.8339 15.06388909196159
1 44741U 19074AE  23154.91424945  .00020020  00000-0  13589-2 0  9996
2 44741  53.0549  59.6729 0001194 114.7090 245.4023 15.06405387196277
1 44741U 19074AE  23155.11328790  .00018009  00000-0  12244-2 0  9991
2 44741  53.0547  58.7808 0001187 114.6999 245.4113 15.06413307196307
1 44741U 19074AE  23155.11328790  .00018009  00000-0  12244-2 0  9991
2 44741  53.0547  58.7808 0001187 114.6999 245.4113 15.06413307196475
1 44741U 19074AE  23155.90945574  .00004651  00000-0  33092-3 0  9996
2 44741  53.0549  55.2027 0001736  99.7483 260.3702 15.06400650196425
1 44741U 19074AE  23156.10849683  .00007953  00000-0  55222-3 0  9990
2 44741  53.0554  54.3117 0001244 112.1715 247.9406 15.06399497196454
1 44741U 19074AE  23156.10849683  .00007953  00000-0  55222-3 0  9990
2 44741  53.0554  54.3117 0001244 112.1715 247.9406 15.06399497196623
1 44741U 19074AE  23156.90465058  .00017385  00000-0  11823-2 0  9996
2 44741  53.0549  50.7391 0001017 102.4403 257.6700 15.06427156196578
1 44741U 19074AE  23157.10368549  .00019990  00000-0  13557-2 0  9996
2 44741  53.0546  49.8452 0001111 107.4623 252.6488 15.06438738196606
1 44741U 19074AE  23157.10368549  .00019990  00000-0  13557-2 0  9996
2 44741  53.0546  49.8452 0001111 107.4623 252.6488 15.06438738196774
1 44741U 19074AE  23157.43540809  .00020420  00000-0  13838-2 0  9995
2 44741  53.0545  48.3565 0001043 105.5378 254.5726 15.06453780196659
1 44741U 19074AE  23158.09889876  .00017459  00000-0  11882-2 0  9993
2 44741  53.0547  45.3793 0001048  82.0108 278.1000 15.06395728196920
1 44741U 19074AE  23158.16524476  .00006672  00000-0  46642-3 0  9991
2 44741  53.0544  45.0800 0001133  93.2869 266.8249 15.06397487196761
1 44741U 19074AE  23158.16524476  .00006672  00000-0  46642-3 0  9991
2 44741  53.0544  45.0800 0001133  93.2869 266.8249 15.06397487196930
1 44741U 19074AE  23158.89505509  .00017041  00000-0  11595-2 0  9997
2 44741  53.0544  41.8036 0001117  90.7998 269.3118 15.06421276196872
1 44741U 19074AE  23159.09409124  .00018508  00000-0  12571-2 0  9990
2 44741  53.0547  40.9099 0001157  85.8002 274.3119 15.06431144196905
1 44741U 19074AE  23159.09409124  .00018508  00000-0  12571-2 0  9990
2 44741  53.0547  40.9099 0001157  85.8002 274.3119 15.06431144197074
1 44741U 19074AE  23159.62487238  .00000361  00000-0  43126-4 0  9991
2 44741  53.0544  38.5278 0001794  86.7032 273.4162 15.06399968196987
1 44741U 19074AE  23159.62487238  .00000361  00000-0  43126-4 0  9991
2 44741  53.0544  38.5278 0001794  86.7032 273.4162 15.06399968197157
1 44741U 19074AE  23160.35469022  .00015003  00000-0  10238-2 0  9999
2 44741  53.0552  35.2504 0001108 110.1208 249.9900 15.06404641197094
1 44741U 19074AE  23160.68642186  .00016634  00000-0  11325-2 0  9998
2 44741  53.0552  33.7606 0001069 108.9625 251.1480 15.06415006197145
1 44741U 19074AE  23160.68642186  .00016634  00000-0  11325-2 0  9998
2 44741  53.0552  33.7606 0001069 108.9625 251.1480 15.06415006197314
1 44741U 19074AE  23161.01814961  .00018175  00000-0  12349-2 0  9997
2 44741  53.0551  32.2716 0001064 112.4171 247.6930 15.06429445197198
1 44741U 19074AE  23161.68162272  .00004308  00000-0  30790-3 0  9995
2 44741  53.0549  29.2930 0001149 105.4041 254.7074 15.06404288197298
1 44741U 19074AE  23161.68162272  .00004308  00000-0  30790-3 0  9995
2 44741  53.0549  29.2930 0001149 105.4041 254.7074 15.06404288197467
1 44741U 19074AE  23162.01336106  .00005337  00000-0  37695-3 0  9996
2 44741  53.0548  27.8042 0000991  96.4090 263.7012 15.06392755197514
1 44741U 19074AE  23162.61048611  .00022905  00000-0  15513-2 0  9997
2 44741  53.0548  25.1238 0000933  94.8899 265.2196 15.06407343197438
